03284   13.12  0.15 K243V 112.00417  261.50720   72.45630    6.65164  0.3823280  0.21386999   2.7692967  0 E2024-JQ5  3586  27 1953-2024 0.57 M-v 3Ek MPCLINUX   0000   (3284) Niebuhr            20240503
03285   12.36  0.15 K243V  16.92055  169.44995  246.05262   20.63186  0.2178276  0.24557022   2.5255284  0 E2024-F74  7568  28 1951-2024 0.32 M-v 3Ek MPCLINUX   0000   (3285) Ruth Wolfe         20240321
03286   12.85  0.15 K243V  73.17648   77.59114  107.38500   13.42796  0.1037066  0.23021278   2.6366335  0 E2024-N16  5404  28 1978-2024 0.55 M-v 3Ek MPCLINUX   0000   (3286) Anatoliya          20240701
03287   14.37  0.15 K243V 200.72232   95.67323  213.23149   12.08350  0.3006901  0.27104119   2.3647170  0 E2024-JQ5  4132  24 1981-2024 0.48 M-v 3Ek MPCLINUX   0005   (3287) Olmstead           20240404
03288   15.35  0.15 K243V 173.23176  349.33896  218.61214    5.93180  0.4556384  0.33977213   2.0339685  0 E2024-CI1  2285  27 1982-2023 0.69 M-v 3Ek MPCLINUX   1804   (3288) Seleucus           20231207
03289   14.06  0.15 K243V  52.37505  352.18552   46.32197    1.75462  0.2076642  0.27775507   2.3264553  0 E2024-JQ5  3223  26 1934-2024 0.56 M-v 3Ek MPCLINUX   0000   (3289) Mitani             20240501
03290   12.22  0.15 K243V 322.39804  108.58304   75.05986    2.77255  0.1312914  0.12538879   3.9533346  0 E2024-L29  3607  35 1954-2024 0.62 M-v 3Ek MPCLINUX   0008   (3290) Azabu              20240602
03291   12.91  0.15 K243V 235.03669  161.74362  151.23853    2.00735  0.1011504  0.17643856   3.1482827  0 E2024-N16  4912  31 1953-2024 0.62 M-v 3Ek MPCLINUX   0000   (3291) Dunlap             20240627
03292   13.21  0.15 K243V  72.81674   17.76914   36.85539    1.57170  0.1689548  0.17500308   3.1654753  0 E2024-KA5  3432  30 1954-2024 0.59 M-v 3Ek MPCLINUX   0000   (3292) Sather             20240527
03293   14.17  0.15 K243V 171.26351  207.63269    9.54835    2.13776  0.1385715  0.26514111   2.3996690  0 E2024-B03  3177  27 1960-2024 0.59 M-v 3Ek MPCLINUX   0000   (3293) Rontaylor          20240115
03294   13.04  0.15 K243V 318.90306  157.63546    6.91577    6.96689  0.0686418  0.22251871   2.6970668  0 E2024-JM0  4543  29 1958-2024 0.46 M-v 3Ek MPCLINUX   0000   (3294) Carlvesely         20240508
03295   13.05  0.15 K243V   1.47057  218.75662  168.16362    8.80245  0.2555048  0.22275552   2.6951549  0 E2024-JQ5  3478  31 1950-2024 0.56 M-v 3Ek MPCLINUX   0000   (3295) Murakami           20240105
03296   12.36  0.15 K243V  61.85171  269.50932  112.81655   13.91390  0.1970075  0.22801334   2.6535618  0 E2024-JQ5  5109  28 1971-2024 0.46 M-v 3Ek MPCLINUX   0000   (3296) Bosque Alegre      20240508
03297   12.53  0.15 K243V  69.69732  288.03262  112.25769    2.37516  0.1713009  0.17748473   3.1358989  0 E2024-JQ5  3779  29 1978-2024 0.55 M-v 3Ek MPCLINUX   0000   (3297) Hong Kong          20240510
03298   13.92  0.15 K243V 115.51689   51.49072  284.99451    2.57003  0.1933179  0.27313071   2.3526412  0 E2024-J40  3029  29 1950-2024 0.57 M-v 3Ek MPCLINUX   0000   (3298) Massandra          20240502
03299   13.61  0.15 K243V 112.07290  243.38746  251.59110    5.47204  0.0779362  0.28618499   2.2805424  0 E2024-N16  5597  29 1982-2024 0.57 M-v 3Ek MPCLINUX   0000   (3299) Hall               20240629
03300   10.60  0.15 K243V 346.75226  263.64450   27.23987   18.74012  0.2013892  0.17483669   3.1674833  0 E2024-MA5  5322  37 1928-2024 0.59 M-v 3Ek MPCLINUX   0000   (3300) McGlasson          20240627
03301   13.15  0.15 K243V 200.87841  118.27920  136.83852    5.06680  0.1529128  0.29524619   2.2336400  0 E2024-G95  3900  28 1925-2024 0.47 M-v 3Ek MPCLINUX   0000   (3301) Jansje             20240407
03302   12.87  0.15 K243V  75.21827  170.52154  154.30980    3.38887  0.0975003  0.25630115   2.4545338  0 E2024-DC2  4246  31 1954-2024 0.49 M-v 3Ek MPCLINUX   0000   (3302) Schliemann         20240222
03303   12.18  0.15 K243V 253.90402  278.30150   52.11033    2.75923  0.0717638  0.19981740   2.8976584  0 E2024-N27  5171  33 1954-2024 0.65 M-v 3Ek MPCLINUX   0000   (3303) Merta              20240702
03304   13.67  0.15 K243V 170.54817   58.46095  320.28670    2.20098  0.2785736  0.18461602   3.0546149  0 E2024-L65  2375  30 1978-2024 0.64 M-v 3Ek MPCLINUX   0000   (3304) Pearce             20240605
03305   12.52  0.15 K243V  64.28709  240.50927   32.12560   13.43346  0.1541467  0.23483071   2.6019530  0 E2024-N27  6566  28 1968-2024 0.50 M-v 3Ek MPCLINUX   0000   (3305) Ceadams            20240702
03306   13.18  0.15 K243V 162.76694   64.83124  213.28815    4.52803  0.1450601  0.29247002   2.2477524  0 E2024-G77  7995  32 1951-2024 0.38 M-v 3Ek MPCLINUX   0000   (3306) Byron              20240405
03307   14.04  0.15 K243V   6.32836  146.37349  263.12379    6.37629  0.0961978  0.29015157   2.2597103  0 E2024-EC3  3134  27 1977-2024 0.55 M-v 3Ek MPCLINUX   0000   (3307) Athabasca          20240216
03308   11.68  0.15 K243V 328.51849  273.13567  172.30687   23.62272  0.1876544  0.17668666   3.1453347  0 E2024-L42  4698  30 1953-2024 0.42 M-v 3Ek MPCLINUX   0000   (3308) Ferreri            20240202
03309   13.73  0.15 K243V 321.58200  218.59033   29.76591   21.13631  0.0536369  0.40222149   1.8175758  0 E2024-N27  3613  22 1982-2024 0.68 M-v 3Ek MPCLINUX   0006   (3309) Brorfelde          20240702
03310   11.02  0.15 K243V  31.24143  132.93553  101.34796   11.09645  0.0593351  0.18879543   3.0093664  0 E2024-N27  7299  37 1930-2024 0.50 M-v 3Ek MPCLINUX   0000   (3310) Patsy              20240702
03311   12.42  0.15 K243V 262.07931   10.00458  157.37919    0.93283  0.0374770  0.21123440   2.7922842  0 E2024-JF3  4363  35 1954-2024 0.51 M-v 3Ek MPCLINUX   0000   (3311) Podobed            20240322
03312   11.76  0.15 K243V 224.86765  128.92731  214.30542    9.65452  0.1197809  0.18918725   3.0052099  0 E2024-N27  6809  35 1953-2024 0.54 M-v 3Ek MPCLINUX   0000   (3312) Pedersen           20240701
03313   12.35  0.15 K243V 337.12532  346.07536  272.30513   11.39612  0.1311116  0.22779421   2.6552633  0 E2024-N27  4297  30 1972-2024 0.65 M-v 3Ek MPCLINUX   0000   (3313) Mendel             20240702
03314   13.13  0.15 K243V 145.42802   45.78760  359.40820    7.40535  0.0446174  0.29831299   2.2183051  0 E2024-N16  7352  35 1928-2024 0.51 M-v 3Ek MPCLINUX   0000   (3314) Beals              20240630
03315   12.57  0.15 K243V  86.38050   57.97223  146.61974   10.04026  0.0859490  0.22970195   2.6405411  0 E2024-N16  3847  30 1950-2024 0.68 M-v 3Ek MPCLINUX   0000   (3315) Chant              20240630
03316   12.09  0.15 K243V  84.80324  353.51508  200.24669    8.40992  0.1047127  0.17961064   3.1111051  0 E2024-N27  4619  30 1951-2024 0.66 M-v 3Ek MPCLINUX   0000   (3316) Herzberg           20240702
03317    8.43  0.15 K243V  66.40147  151.07910  135.89861   27.85341  0.1286325  0.08242627   5.2290840  0 E2024-N27  4149  33 1963-2024 0.65 M-v 3Ek MPCLINUX   0009   (3317) Paris              20240702
03318   11.08  0.15 K243V 211.64017   47.74613  109.06001   11.57230  0.0482173  0.18892169   3.0080254  0 E2024-N27  5200  35 1943-2024 0.59 M-v 3Ek MPCLINUX   0000   (3318) Blixen             20240702
03319   12.11  0.15 K243V 258.50329  119.91090  269.66356    3.83880  0.1511907  0.17473945   3.1686583  0 E2024-N16  3278  32 1965-2024 0.70 M-v 3Ek MPCLINUX   0000   (3319) Kibi               20240701
03320   13.33  0.15 K243V 115.73089  346.15318  218.08055    4.06451  0.0487409  0.25573198   2.4581744  0 E2024-N27  5512  29 1978-2024 0.57 M-v 3Ek MPCLINUX   0000   (3320) Namba              20240702
03321   13.04  0.15 K243V 344.21950  202.67329  162.49881    7.32259  0.1984244  0.24260169   2.5460886  0 E2024-DC2  6375  28 1951-2023 0.36 M-v 3Ek MPCLINUX   0000   (3321) Dasha              20231012
03322   12.98  0.15 K243V 353.05895  223.89297  250.68747   23.50029  0.2166332  0.26652203   2.3913729  0 E2024-H72  5745  26 1975-2024 0.38 M-v 3Ek MPCLINUX   0007   (3322) Lidiya             20240424
03323   13.72  0.15 K243V 285.76403   24.30445   21.29879    0.70650  0.1847515  0.24043270   2.5613781  0 E2024-N27  3041  32 1975-2024 0.73 M-v 3Ek MPCLINUX   0000   (3323) Turgenev           20240702
03324   12.11  0.15 K243V  95.55347  183.70690  316.72266   10.77088  0.0264333  0.22221980   2.6994848  0 E2024-N27  6119  30 1959-2024 0.56 M-v 3Ek MPCLINUX   0000   (3324) Avsyuk             20240702
03325   11.69  0.15 K243V 103.06665   85.05023   46.17161   22.19990  0.0189200  0.17334716   3.1856023  0 E2024-N27  6142  27 1958-2024 0.55 M-v 3Ek MPCLINUX   0000   (3325) TARDIS             20240630
03326   13.32  0.15 K243V 159.36771  280.80594    4.28595    3.37658  0.1734976  0.27045320   2.3681432  0 E2024-G95  3774  34 1946-2024 0.57 M-v 3Ek MPCLINUX   0000   (3326) Agafonikov         20240407
03327   11.91  0.15 K243V 319.55785  242.43209   69.73395    1.55605  0.0910092  0.17401820   3.1774077  0 E2024-N16  4528  43 1923-2024 0.69 M-v 3Ek MPCLINUX   0000   (3327) Campins            20240630
03328   11.62  0.15 K243V 145.79311  274.21868   60.27989   11.45774  0.1118881  0.18841027   3.0134662  0 E2024-L56  4756  30 1949-2024 0.45 M-v 3Ek MPCLINUX   0000   (3328) Interposita        20240604
03329   11.75  0.15 K243V  82.88146   69.97705   11.63864   10.41450  0.0812590  0.18991084   2.9975715  0 E2024-N27  5513  29 1959-2024 0.59 M-v 3Ek MPCLINUX   0000   (3329) Golay              20240701
03330   11.53  0.15 K243V 357.54406  306.54177    9.80086   10.26318  0.2006545  0.17601491   3.1533323  0 E2024-N27  5362  31 1933-2024 0.61 M-v 3Ek MPCLINUX   0000   (3330) Gantrisch          20240702
03331   13.63  0.15 K243V 165.18463  305.99676  168.30817    3.57113  0.0878597  0.26185974   2.4196742  0 E2024-N27  5156  31 1972-2024 0.59 M-v 3Ek MPCLINUX   0000   (3331) Kvistaberg         20240702
03332   11.61  0.15 K243V 351.45755  277.54320  138.62736   14.84536  0.0865063  0.24267193   2.5455972  0 E2024-E02  4542  29 1936-2024 0.45 M-v 3Ek MPCLINUX   0000   (3332) Raksha             20240202
